GLOBALSTAR M075         
1 37192U 10054E   24303.99339309 -.00000051  00000+0  29365-3 0  9993
2 37192  51.9924 162.4274 0000793  82.9409  57.8583 12.62268370646774
GLOBALSTAR M073         
1 37193U 10054F   24303.75750887 -.00000106  00000+0 -15196-4 0  9996
2 37193  52.0059  76.7848 0000804 116.4961  31.6181 12.62271676648734
GLOBALSTAR M083         
1 37739U 11033A   24304.01320784 -.00000065  00000+0  21375-3 0  9997
2 37739  51.9884  25.0541 0000730 105.3036  65.6443 12.62267036617783
GLOBALSTAR M088         
1 37740U 11033B   24303.95443417 -.00000078  00000+0  14528-3 0  9996
2 37740  51.9737 290.9186 0000543  71.0492 313.5830 12.62264146613327
GLOBALSTAR M091         
1 37741U 11033C   24303.36602949 -.00000087  00000+0  95545-4 0  9998
2 37741  51.9995 255.8553 0000863  68.5295  99.2747 12.62269356614031
GLOBALSTAR M085         
1 37742U 11033D   24303.51158459 -.00000065  00000+0  21459-3 0  9996
2 37742  51.9858 206.6533 0001037  73.3182  97.4988 12.62268267614560
GLOBALSTAR M081         
1 37743U 11033E   24303.91719397 -.00000079  00000+0  13856-3 0  9992
2 37743  51.9951 208.0625 0001007  86.5823   8.5100 12.62262459614766
GLOBALSTAR M089         
1 37744U 11033F   24303.96684913 -.00000047  00000+0  31663-3 0  9994
2 37744  51.9908 162.1852 0000657  97.5070  41.9047 12.62271612615614
